NORAD_CAT_ID,OBJECT_NAME,OBJECT_TYPE,EPOCH,MEAN_MOTION,ECCENTRICITY,INCLINATION,RA_OF_ASC_NODE,ARG_OF_PERICENTER,MEAN_ANOMALY,BSTAR,MEAN_MOTION_DOT,MEAN_MOTION_DDOT,TLE_LINE0,TLE_LINE1,TLE_LINE2,SEMIMAJOR_AXIS,PERIOD,APOGEE,PERIGEE,DECAYED
53247.0,STARLINK-4061,PAYLOAD,2023-04-20 02:38:01,15.07544511,9.56e-05,53.2151,253.4897,88.6745,271.4356,0.0047531,0.00073499,0.0,0 STARLINK-4061,1 53247U 22086F   23110.10973636  .00073499  00000-0  47531-2 0  9995,2 53247  53.2151 253.4897 0000956  88.6745 271.4356 15.07544511 41608,6921.843,95.52,544.37,543.046,0.0
53247.0,STARLINK-4061,PAYLOAD,2023-04-20 10:35:16,15.07667703,0.0001447,53.2168,252.0051,77.1053,283.0101,0.0057923,0.00090144,0.0,0 STARLINK-4061,1 53247U 22086F   23110.44116153  .00090144  00000-0  57923-2 0  9997,2 53247  53.2168 252.0051 0001447  77.1053 283.0101 15.07667703 42151,6921.466,95.512,544.332,542.329,0.0
53247.0,STARLINK-4061,PAYLOAD,2023-04-20 16:56:57,15.07868107,0.0002095,53.2157,250.8138,123.781,236.3381,0.0077164,0.00121378,0.0,0 STARLINK-4061,1 53247U 22086F   23110.70621723  .00121378  00000-0  77164-2 0  9993,2 53247  53.2157 250.8138 0002095 123.7810 236.3381 15.07868107 41690,6920.853,95.499,544.168,541.268,0.0
53247.0,STARLINK-4061,PAYLOAD,2023-04-21 02:29:20,15.08232513,5.13e-05,53.217,249.0314,92.5607,267.5444,0.011025,0.00176657,0.0,0 STARLINK-4061,1 53247U 22086F   23111.10370463  .00176657  00000-0  11025-1 0  9993,2 53247  53.2170 249.0314 0000513  92.5607 267.5444 15.08232513 41751,6919.738,95.476,541.958,541.248,0.0
53247.0,STARLINK-4061,PAYLOAD,2023-04-21 14:00:01,15.08851417,0.0001436,53.215,246.8784,87.7066,358.5843,-0.0027628,-0.00044003,0.0,0 STARLINK-4061,1 53247U 22086F   23111.58334491 -.00044003  00000-0 -27628-2 0  9994,2 53247  53.2150 246.8784 0001436  87.7066 358.5843 15.08851417 41827,6917.845,95.437,540.704,538.717,0.0
53247.0,STARLINK-4061,PAYLOAD,2023-04-22 00:00:02,15.08838294,0.0001355,53.2151,245.0077,84.1566,106.657,-0.00020023,-3.473e-05,0.0,0 STARLINK-4061,1 53247U 22086F   23112.00002315 -.00003473  00000-0 -20023-3 0  9998,2 53247  53.2151 245.0077 0001355  84.1566 106.6570 15.08838294  1306,6917.886,95.438,540.688,538.813,0.0
53247.0,STARLINK-4061,PAYLOAD,2023-04-22 14:00:01,15.08955495,0.0001288,53.2154,242.3893,85.9162,35.2,-0.013061,-0.0020299,0.0,0 STARLINK-4061,1 53247U 22086F   23112.58334491 -.00202990  00000-0 -13061-1 0  9991,2 53247  53.2154 242.3893 0001288  85.9162  35.2000 15.08955495 41976,6917.527,95.43,540.283,538.501,0.0
53247.0,STARLINK-4061,PAYLOAD,2023-04-22 22:00:01,15.0878659,9.78e-05,53.2154,240.8929,80.0023,52.8296,0.0011487,0.00018014,0.0,0 STARLINK-4061,1 53247U 22086F   23112.91668981  .00018014  00000-0  11487-2 0  9993,2 53247  53.2154 240.8929 0000978  80.0023  52.8296 15.08786590 42023,6918.044,95.441,540.585,539.232,0.0
53247.0,STARLINK-4061,PAYLOAD,2023-04-23 00:00:00,15.08801765,9.37e-05,53.2155,240.5184,84.2136,141.4352,-0.00053076,-8.716e-05,0.0,0 STARLINK-4061,1 53247U 22086F   23113.00001157 -.00008716  00000-0 -53076-3 0  9991,2 53247  53.2155 240.5184 0000937  84.2136 141.4352 15.08801765  1306,6917.997,95.44,540.51,539.214,0.0
53247.0,STARLINK-4061,PAYLOAD,2023-04-23 08:00:01,15.08826039,0.0001128,53.2157,239.0213,95.867,141.2554,0.0030777,0.00049016,0.0,0 STARLINK-4061,1 53247U 22086F   23113.33334491  .00049016  00000-0  30777-2 0  9995,2 53247  53.2157 239.0213 0001128  95.8670 141.2554 15.08826039 42081,6917.923,95.438,540.568,539.008,0.0
53247.0,STARLINK-4061,PAYLOAD,2023-04-23 14:00:01,15.08877487,0.0001141,53.2157,237.9005,88.7002,67.1166,-0.0043353,-0.00068696,0.0,0 STARLINK-4061,1 53247U 22086F   23113.58334491 -.00068696  00000-0 -43353-2 0  9993,2 53247  53.2157 237.9005 0001141  88.7002  67.1166 15.08877487  1300,6917.766,95.435,540.42,538.841,0.0
53247.0,STARLINK-4061,PAYLOAD,2023-04-23 22:00:00,15.0882693,0.0001057,53.2156,236.4041,87.8657,79.5634,0.00014399,2.004e-05,0.0,0 STARLINK-4061,1 53247U 22086F   23113.91667824  .00002004  00000-0  14399-3 0  9997,2 53247  53.2156 236.4041 0001057  87.8657  79.5634 15.08826930 42179,6917.92,95.438,540.517,539.054,0.0
53247.0,STARLINK-4061,PAYLOAD,2023-04-24 14:00:01,15.08887338,0.0001064,53.2158,233.4116,84.687,105.9165,-0.0063041,-0.00099362,0.0,0 STARLINK-4061,1 53247U 22086F   23114.58334491 -.00099362  00000-0 -63041-2 0  9994,2 53247  53.2158 233.4116 0001064  84.6870 105.9165 15.08887338 42274,6917.736,95.435,540.337,538.865,0.0
53247.0,STARLINK-4061,PAYLOAD,2023-04-24 22:00:01,15.08790906,0.0001254,53.2155,231.9147,49.1835,153.254,0.0026866,0.00042671,0.0,0 STARLINK-4061,1 53247U 22086F   23114.91668981  .00042671  00000-0  26866-2 0  9998,2 53247  53.2155 231.9147 0001254  49.1835 153.2540 15.08790906 42329,6918.03,95.441,540.763,539.028,0.0
53247.0,STARLINK-4061,PAYLOAD,2023-04-25 11:24:56,15.08819658,0.0001236,53.2158,229.405,86.9599,273.1535,-0.00057487,-9.42e-05,0.0,0 STARLINK-4061,1 53247U 22086F   23115.47564934 -.00009420  00000-0 -57487-3 0  9994,2 53247  53.2158 229.4050 0001236  86.9599 273.1535 15.08819658 42415,6917.943,95.439,540.663,538.953,0.0
53247.0,STARLINK-4061,PAYLOAD,2023-04-26 11:15:43,15.08835329,9.65e-05,53.2168,224.9472,74.55,285.5599,-0.00013701,-2.467e-05,0.0,0 STARLINK-4061,1 53247U 22086F   23116.46925096 -.00002467  00000-0 -13701-3 0  9999,2 53247  53.2168 224.9472 0000965  74.5500 285.5599 15.08835329 43069,6917.895,95.438,540.427,539.092,0.0
53247.0,STARLINK-4061,PAYLOAD,2023-04-27 11:06:31,15.08836946,0.0001071,53.2146,220.4851,62.0968,298.0132,0.00043231,6.598e-05,0.0,0 STARLINK-4061,1 53247U 22086F   23117.46285994  .00006598  00000-0  43231-3 0  9994,2 53247  53.2146 220.4851 0001071  62.0968 298.0132 15.08836946 43211,6917.89,95.438,540.496,539.014,0.0
53247.0,STARLINK-4061,PAYLOAD,2023-04-27 15:52:40,15.08844939,0.0001159,53.2148,219.5924,38.7772,321.3303,0.00057882,8.937e-05,0.0,0 STARLINK-4061,1 53247U 22086F   23117.66157732  .00008937  00000-0  57882-3 0  9990,2 53247  53.2148 219.5924 0001159  38.7772 321.3303 15.08844939 42741,6917.865,95.437,540.532,538.929,0.0
53247.0,STARLINK-4061,PAYLOAD,2023-04-28 06:11:08,15.08839253,0.0001379,53.2139,216.9177,70.8723,289.2419,0.00012409,1.687e-05,0.0,0 STARLINK-4061,1 53247U 22086F   23118.25774050  .00001687  00000-0  12409-3 0  9995,2 53247  53.2139 216.9177 0001379  70.8723 289.2419 15.08839253 42832,6917.883,95.438,540.702,538.794,0.0
53247.0,STARLINK-4061,PAYLOAD,2023-04-28 12:32:41,15.08842158,8.63e-05,53.2163,215.7287,57.6165,302.4911,0.00016709,2.373e-05,0.0,0 STARLINK-4061,1 53247U 22086F   23118.52269903  .00002373  00000-0  16709-3 0  9991,2 53247  53.2163 215.7287 0000863  57.6165 302.4911 15.08842158 43371,6917.874,95.437,540.336,539.142,0.0
53247.0,STARLINK-4061,PAYLOAD,2023-04-29 12:23:27,15.08855308,0.0001133,53.215,211.2686,54.1817,305.928,0.00041304,6.294e-05,0.0,0 STARLINK-4061,1 53247U 22086F   23119.51629353  .00006294  00000-0  41304-3 0  9995,2 53247  53.2150 211.2686 0001133  54.1817 305.9280 15.08855308 43028,6917.834,95.437,540.482,538.915,0.0
53247.0,STARLINK-4061,PAYLOAD,2023-04-30 12:14:14,15.08843936,9.47e-05,53.2147,206.8052,78.0463,282.0635,7.5433e-05,9.13e-06,0.0,0 STARLINK-4061,1 53247U 22086F   23120.50989412  .00000913  00000-0  75433-4 0  9994,2 53247  53.2147 206.8052 0000947  78.0463 282.0635 15.08843936 43174,6917.868,95.437,540.388,539.078,0.0
53247.0,STARLINK-4061,PAYLOAD,2023-05-01 05:43:29,15.08834103,0.0001205,53.2151,203.5358,55.6306,304.48,0.00012535,1.707e-05,0.0,0 STARLINK-4061,1 53247U 22086F   23121.23854137  .00001707  00000-0  12535-3 0  9995,2 53247  53.2151 203.5358 0001205  55.6306 304.4800 15.08834103 43288,6917.898,95.438,540.597,538.93,0.0
53247.0,STARLINK-4061,PAYLOAD,2023-05-01 12:05:02,15.08836927,9.59e-05,53.2152,202.3447,73.0698,287.0399,5.5176e-06,-2e-06,0.0,0 STARLINK-4061,1 53247U 22086F   23121.50350052 -.00000200  00000-0  55176-5 0  9990,2 53247  53.2152 202.3447 0000959  73.0698 287.0399 15.08836927 43823,6917.89,95.438,540.418,539.091,0.0
53247.0,STARLINK-4061,PAYLOAD,2023-05-02 10:20:26,15.08847216,9.55e-05,53.2155,198.1809,74.8764,285.2334,0.00034774,5.252e-05,0.0,0 STARLINK-4061,1 53247U 22086F   23122.43085878  .00005252  00000-0  34774-3 0  9994,2 53247  53.2155 198.1809 0000955  74.8764 285.2334 15.08847216 43461,6917.858,95.437,540.384,539.063,0.0
53247.0,STARLINK-4061,PAYLOAD,2023-05-02 13:31:12,15.08852492,9.58e-05,53.2155,197.5856,84.6145,275.4957,0.00042035,6.411e-05,0.0,0 STARLINK-4061,1 53247U 22086F   23122.56333601  .00006411  00000-0  42035-3 0  9995,2 53247  53.2155 197.5856 0000958  84.6145 275.4957 15.08852492 43982,6917.842,95.437,540.37,539.044,0.0
53247.0,STARLINK-4061,PAYLOAD,2023-05-03 05:25:03,15.08838834,9.38e-05,53.216,194.6111,98.0901,262.0198,4.3799e-05,4.09e-06,0.0,0 STARLINK-4061,1 53247U 22086F   23123.22574054  .00000409  00000-0  43799-4 0  9998,2 53247  53.2160 194.6111 0000938  98.0901 262.0198 15.08838834 43586,6917.884,95.438,540.398,539.1,0.0
53247.0,STARLINK-4061,PAYLOAD,2023-05-03 11:46:36,15.08839446,8.48e-05,53.2154,193.4239,82.8756,277.2332,5.3309e-05,5.61e-06,0.0,0 STARLINK-4061,1 53247U 22086F   23123.49070094  .00000561  00000-0  53309-4 0  9999,2 53247  53.2154 193.4239 0000848  82.8756 277.2332 15.08839446 44125,6917.882,95.438,540.334,539.16,0.0
53247.0,STARLINK-4061,PAYLOAD,2023-05-04 11:37:23,15.08842855,8.75e-05,53.2151,188.965,100.4657,259.6434,1.601e-05,-3.3e-07,0.0,0 STARLINK-4061,1 53247U 22086F   23124.48430059 -.00000033  00000-0  16010-4 0  9993,2 53247  53.2151 188.9650 0000875 100.4657 259.6434 15.08842855 43770,6917.872,95.437,540.342,539.131,0.0
53247.0,STARLINK-4061,PAYLOAD,2023-05-04 21:09:42,15.08839196,8.1e-05,53.2148,187.1807,93.9941,266.1144,0.00010166,1.331e-05,0.0,0 STARLINK-4061,1 53247U 22086F   23124.88174345  .00001331  00000-0  10166-3 0  9996,2 53247  53.2148 187.1807 0000810  93.9941 266.1144 15.08839196 44330,6917.883,95.438,540.308,539.187,0.0
